ONEWEB-0033             
1 45142U 20008M   25034.28565624 -.00000016  00000+0 -82939-4 0  9991
2 45142  87.8906 135.7159 0001923 105.7820 254.3519 13.10369614242871
ONEWEB-0035             
1 45143U 20008N   25034.77533010 -.00000336  00000+0 -99909-3 0  9999
2 45143  87.8918 135.6128 0001897 109.0600 251.0733 13.10374935243553
ONEWEB-0036             
1 45144U 20008P   25034.76536287 -.00000598  00000+0 -17491-2 0  9993
2 45144  87.8907 135.5623 0001522 102.7509 257.3788 13.10372252243957
ONEWEB-0038             
1 45145U 20008Q   25034.25227614 -.00000318  00000+0 -93448-3 0  9996
2 45145  87.8895 120.5095 0001696 128.2542 231.8739 13.11416715244939
ONEWEB-0039             
1 45146U 20008R   25034.82347566 -.00000068  00000+0 -22995-3 0  9990
2 45146  87.8909 135.5720 0001279 126.5283 233.5963 13.10369578243678
ONEWEB-0040             
1 45147U 20008S   25034.28233555  .00000177  00000+0  47129-3 0  9998
2 45147  87.8915 135.6955 0001832 108.2528 251.8798 13.10368751242525
ONEWEB-0043             
1 45149U 20008U   25034.36035404  .00000048  00000+0  10067-3 0  9990
2 45149  87.8909 135.6740 0001209 107.4294 252.6965 13.10369665242857
ONEWEB-0044             
1 45150U 20008V   25034.31220201 -.00000472  00000+0 -13890-2 0  9997
2 45150  87.8906 135.6757 0001498 109.4724 250.6565 13.10374131243145
